[
  {
    "OBJECT_NAME": "ZHUHAI-1 01 (CAS-4A)",
    "OBJECT_ID": "2017-034D",
    "EPOCH": "2025-05-06T04:04:43.762080",
    "MEAN_MOTION": 15.60073375,
    "ECCENTRICITY": 0.001947,
    "INCLINATION": 43.0109,
    "RA_OF_ASC_NODE": 163.8015,
    "ARG_OF_PERICENTER": 51.9021,
    "MEAN_ANOMALY": 308.3595,
    "EPHEMERIS_TYPE": 0,
    "CLASSIFICATION_TYPE": "U",
    "NORAD_CAT_ID": 42761,
    "ELEMENT_SET_NO": 999,
    "REV_AT_EPOCH": 43724,
    "BSTAR": 0.00078092,
    "MEAN_MOTION_DOT": 0.00065778,
    "MEAN_MOTION_DDOT": 0
  },
  {
    "OBJECT_NAME": "CARTOSAT-2E",
    "OBJECT_ID": "2017-036C",
    "EPOCH": "2025-05-06T03:13:54.143616",
    "MEAN_MOTION": 15.19345072,
    "ECCENTRICITY": 0.000223,
    "INCLINATION": 97.4808,
    "RA_OF_ASC_NODE": 186.1477,
    "ARG_OF_PERICENTER": 255.6212,
    "MEAN_ANOMALY": 104.4775,
    "EPHEMERIS_TYPE": 0,
    "CLASSIFICATION_TYPE": "U",
    "NORAD_CAT_ID": 42767,
    "ELEMENT_SET_NO": 999,
    "REV_AT_EPOCH": 43634,
    "BSTAR": 0.00031446,
    "MEAN_MOTION_DOT": 6.579e-05,
    "MEAN_MOTION_DDOT": 0
  },
  {
    "OBJECT_NAME": "FORMOSAT-5",
    "OBJECT_ID": "2017-049A",
    "EPOCH": "2025-05-05T21:16:40.344384",
    "MEAN_MOTION": 14.50798459,
    "ECCENTRICITY": 0.000977,
    "INCLINATION": 98.259,
    "RA_OF_ASC_NODE": 204.3698,
    "ARG_OF_PERICENTER": 248.2877,
    "MEAN_ANOMALY": 111.7278,
    "EPHEMERIS_TYPE": 0,
    "CLASSIFICATION_TYPE": "U",
    "NORAD_CAT_ID": 42920,
    "ELEMENT_SET_NO": 999,
    "REV_AT_EPOCH": 40761,
    "BSTAR": 9.5626e-05,
    "MEAN_MOTION_DOT": 3.33e-06,
    "MEAN_MOTION_DDOT": 0
  },
  {
    "OBJECT_NAME": "SENTINEL-5P",
    "OBJECT_ID": "2017-064A",
    "EPOCH": "2025-05-05T19:04:32.812608",
    "MEAN_MOTION": 14.19518225,
    "ECCENTRICITY": 0.0001051,
    "INCLINATION": 98.7564,
    "RA_OF_ASC_NODE": 66.671,
    "ARG_OF_PERICENTER": 76.7003,
    "MEAN_ANOMALY": 283.429,
    "EPHEMERIS_TYPE": 0,
    "CLASSIFICATION_TYPE": "U",
    "NORAD_CAT_ID": 42969,
    "ELEMENT_SET_NO": 999,
    "REV_AT_EPOCH": 39176,
    "BSTAR": 8.1765e-05,
    "MEAN_MOTION_DOT": 1.28e-06,
    "MEAN_MOTION_DDOT": 0
  },
  {
    "OBJECT_NAME": "SKYSAT-C11",
    "OBJECT_ID": "2017-068A",
    "EPOCH": "2025-05-05T19:26:37.372992",
    "MEAN_MOTION": 15.38624142,
    "ECCENTRICITY": 6.6e-05,
    "INCLINATION": 97.3881,
    "RA_OF_ASC_NODE": 260.017,
    "ARG_OF_PERICENTER": 150.9483,
    "MEAN_ANOMALY": 209.1799,
    "EPHEMERIS_TYPE": 0,
    "CLASSIFICATION_TYPE": "U",
    "NORAD_CAT_ID": 42987,
    "ELEMENT_SET_NO": 999,
    "REV_AT_EPOCH": 42026,
    "BSTAR": 0.00049607,
    "MEAN_MOTION_DOT": 0.00018863,
    "MEAN_MOTION_DDOT": 0
  },
  {
    "OBJECT_NAME": "SKYSAT-C10",
    "OBJECT_ID": "2017-068B",
    "EPOCH": "2025-05-05T19:54:47.481408",
    "MEAN_MOTION": 15.31736655,
    "ECCENTRICITY": 0.0004335,
    "INCLINATION": 97.399,
    "RA_OF_ASC_NODE": 256.6524,
    "ARG_OF_PERICENTER": 58.7227,
    "MEAN_ANOMALY": 301.4439,
    "EPHEMERIS_TYPE": 0,
    "CLASSIFICATION_TYPE": "U",
    "NORAD_CAT_ID": 42988,
    "ELEMENT_SET_NO": 999,
    "REV_AT_EPOCH": 41998,
    "BSTAR": 0.00046802,
    "MEAN_MOTION_DOT": 0.00014279,
    "MEAN_MOTION_DDOT": 0
  },
  {
    "OBJECT_NAME": "SKYSAT-C9",
    "OBJECT_ID": "2017-068C",
    "EPOCH": "2025-05-06T01:57:18.493056",
    "MEAN_MOTION": 15.34908126,
    "ECCENTRICITY": 0.0010744,
    "INCLINATION": 97.3919,
    "RA_OF_ASC_NODE": 255.5367,
    "ARG_OF_PERICENTER": 144.2542,
    "MEAN_ANOMALY": 215.9423,
    "EPHEMERIS_TYPE": 0,
    "CLASSIFICATION_TYPE": "U",
    "NORAD_CAT_ID": 42989,
    "ELEMENT_SET_NO": 999,
    "REV_AT_EPOCH": 42024,
    "BSTAR": 0.00041634,
    "MEAN_MOTION_DOT": 0.00014049,
    "MEAN_MOTION_DDOT": 0
  },
  {
    "OBJECT_NAME": "SKYSAT-C8",
    "OBJECT_ID": "2017-068D",
    "EPOCH": "2025-05-05T19:21:35.652960",
    "MEAN_MOTION": 15.31516792,
    "ECCENTRICITY": 0.0001029,
    "INCLINATION": 97.4015,
    "RA_OF_ASC_NODE": 255.5402,
    "ARG_OF_PERICENTER": 167.9513,
    "MEAN_ANOMALY": 192.1753,
    "EPHEMERIS_TYPE": 0,
    "CLASSIFICATION_TYPE": "U",
    "NORAD_CAT_ID": 42990,
    "ELEMENT_SET_NO": 999,
    "REV_AT_EPOCH": 41988,
    "BSTAR": 0.00046318,
    "MEAN_MOTION_DOT": 0.0001403,
    "MEAN_MOTION_DDOT": 0
  },
  {
    "OBJECT_NAME": "SKYSAT-C7",
    "OBJECT_ID": "2017-068E",
    "EPOCH": "2025-05-05T20:39:48.361824",
    "MEAN_MOTION": 15.3164268,
    "ECCENTRICITY": 0.0005813,
    "INCLINATION": 97.4017,
    "RA_OF_ASC_NODE": 256.7045,
    "ARG_OF_PERICENTER": 136.7082,
    "MEAN_ANOMALY": 223.4617,
    "EPHEMERIS_TYPE": 0,
    "CLASSIFICATION_TYPE": "U",
    "NORAD_CAT_ID": 42991,
    "ELEMENT_SET_NO": 999,
    "REV_AT_EPOCH": 41996,
    "BSTAR": 0.00047154,
    "MEAN_MOTION_DOT": 0.00014348,
    "MEAN_MOTION_DDOT": 0
  },
  {
    "OBJECT_NAME": "SKYSAT-C6",
    "OBJECT_ID": "2017-068F",
    "EPOCH": "2025-05-06T02:33:00.509760",
    "MEAN_MOTION": 15.29840831,
    "ECCENTRICITY": 0.0005592,
    "INCLINATION": 97.405,
    "RA_OF_ASC_NODE": 257.7336,
    "ARG_OF_PERICENTER": 99.8852,
    "MEAN_ANOMALY": 260.302,
    "EPHEMERIS_TYPE": 0,
    "CLASSIFICATION_TYPE": "U",
    "NORAD_CAT_ID": 42992,
    "ELEMENT_SET_NO": 999,
    "REV_AT_EPOCH": 42001,
    "BSTAR": 0.00046033,
    "MEAN_MOTION_DOT": 0.00013242,
    "MEAN_MOTION_DDOT": 0
  },
  {
    "OBJECT_NAME": "CARTOSAT-2F",
    "OBJECT_ID": "2018-004A",
    "EPOCH": "2025-05-06T04:04:10.507584",
    "MEAN_MOTION": 15.19317926,
    "ECCENTRICITY": 0.0001766,
    "INCLINATION": 97.4569,
    "RA_OF_ASC_NODE": 186.9243,
    "ARG_OF_PERICENTER": 183.7049,
    "MEAN_ANOMALY": 176.4173,
    "EPHEMERIS_TYPE": 0,
    "CLASSIFICATION_TYPE": "U",
    "NORAD_CAT_ID": 43111,
    "ELEMENT_SET_NO": 999,
    "REV_AT_EPOCH": 38708,
    "BSTAR": 0.00033641,
    "MEAN_MOTION_DOT": 7.09e-05,
    "MEAN_MOTION_DDOT": 9.7941e-09
  },
  {
    "OBJECT_NAME": "GAOFEN-1 02",
    "OBJECT_ID": "2018-031A",
    "EPOCH": "2025-05-06T05:03:00.658656",
    "MEAN_MOTION": 14.76599191,
    "ECCENTRICITY": 0.0004097,
    "INCLINATION": 97.7747,
    "RA_OF_ASC_NODE": 188.7889,
    "ARG_OF_PERICENTER": 211.8293,
    "MEAN_ANOMALY": 148.267,
    "EPHEMERIS_TYPE": 0,
    "CLASSIFICATION_TYPE": "U",
    "NORAD_CAT_ID": 43259,
    "ELEMENT_SET_NO": 999,
    "REV_AT_EPOCH": 38264,
    "BSTAR": 0.0002018,
    "MEAN_MOTION_DOT": 1.36e-05,
    "MEAN_MOTION_DDOT": 0
  },
  {
    "OBJECT_NAME": "GAOFEN-1 03",
    "OBJECT_ID": "2018-031B",
    "EPOCH": "2025-05-06T04:31:35.804640",
    "MEAN_MOTION": 14.76615139,
    "ECCENTRICITY": 0.0004356,
    "INCLINATION": 97.7741,
    "RA_OF_ASC_NODE": 188.6646,
    "ARG_OF_PERICENTER": 258.1776,
    "MEAN_ANOMALY": 101.8945,
    "EPHEMERIS_TYPE": 0,
    "CLASSIFICATION_TYPE": "U",
    "NORAD_CAT_ID": 43260,
    "ELEMENT_SET_NO": 999,
    "REV_AT_EPOCH": 38263,
    "BSTAR": 0.00020207,
    "MEAN_MOTION_DOT": 1.363e-05,
    "MEAN_MOTION_DDOT": 0
  },
  {
    "OBJECT_NAME": "GAOFEN-1 04",
    "OBJECT_ID": "2018-031D",
    "EPOCH": "2025-05-06T03:56:27.029472",
    "MEAN_MOTION": 14.76567993,
    "ECCENTRICITY": 6.17e-05,
    "INCLINATION": 97.7751,
    "RA_OF_ASC_NODE": 188.7836,
    "ARG_OF_PERICENTER": 215.3077,
    "MEAN_ANOMALY": 144.8093,
    "EPHEMERIS_TYPE": 0,
    "CLASSIFICATION_TYPE": "U",
    "NORAD_CAT_ID": 43262,
    "ELEMENT_SET_NO": 999,
    "REV_AT_EPOCH": 38262,
    "BSTAR": 0.00018951,
    "MEAN_MOTION_DOT": 1.274e-05,
    "MEAN_MOTION_DDOT": 0
  }
]