ZHUHAI-1 01 (CAS-4A)    
1 42761U 17034D   25126.16995095  .00065778  00000+0  78092-3 0  9996
2 42761  43.0109 163.8015 0019470  51.9021 308.3595 15.60073375437242
CARTOSAT-2E             
1 42767U 17036C   25126.13465444  .00006579  00000+0  31446-3 0  9997
2 42767  97.4808 186.1477 0002230 255.6212 104.4775 15.19345072436343
FORMOSAT-5              
1 42920U 17049A   25125.88657806  .00000333  00000+0  95626-4 0  9991
2 42920  98.2590 204.3698 0009770 248.2877 111.7278 14.50798459407612
SENTINEL-5P             
1 42969U 17064A   25125.79482422  .00000128  00000+0  81765-4 0  9992
2 42969  98.7564  66.6710 0001051  76.7003 283.4290 14.19518225391769
SKYSAT-C11              
1 42987U 17068A   25125.81015478  .00018863  00000+0  49607-3 0  9995
2 42987  97.3881 260.0170 0000660 150.9483 209.1799 15.38624142420263
SKYSAT-C10              
1 42988U 17068B   25125.82971622  .00014279  00000+0  46802-3 0  9990
2 42988  97.3990 256.6524 0004335  58.7227 301.4439 15.31736655419983
SKYSAT-C9               
1 42989U 17068C   25126.08146404  .00014049  00000+0  41634-3 0  9995
2 42989  97.3919 255.5367 0010744 144.2542 215.9423 15.34908126420240
SKYSAT-C8               
1 42990U 17068D   25125.80666265  .00014030  00000+0  46318-3 0  9992
2 42990  97.4015 255.5402 0001029 167.9513 192.1753 15.31516792419887
SKYSAT-C7               
1 42991U 17068E   25125.86097641  .00014348  00000+0  47154-3 0  9996
2 42991  97.4017 256.7045 0005813 136.7082 223.4617 15.31642680419968
SKYSAT-C6               
1 42992U 17068F   25126.10625590  .00013242  00000+0  46033-3 0  9992
2 42992  97.4050 257.7336 0005592  99.8852 260.3020 15.29840831420019
CARTOSAT-2F             
1 43111U 18004A   25126.16956606  .00007090  97941-8  33641-3 0  9992
2 43111  97.4569 186.9243 0001766 183.7049 176.4173 15.19317926387086
GAOFEN-1 02             
1 43259U 18031A   25126.21042429  .00001360  00000+0  20180-3 0  9999
2 43259  97.7747 188.7889 0004097 211.8293 148.2670 14.76599191382644
GAOFEN-1 03             
1 43260U 18031B   25126.18860885  .00001363  00000+0  20207-3 0  9994
2 43260  97.7741 188.6646 0004356 258.1776 101.8945 14.76615139382638
GAOFEN-1 04             
1 43262U 18031D   25126.16420173  .00001274  00000+0  18951-3 0  9990
2 43262  97.7751 188.7836 0000617 215.3077 144.8093 14.76567993382622
